{"fetched_at":"2026-03-29T02:12:04Z","count":15717,"tles":[{"name":"TOMORROW-S9","line1":"1 66309U 25248S   26087.36755969  .00005820  00000+0  28257-3 0  9999","line2":"2 66309  45.4043 194.8247 0004213 300.5915  59.4556 15.19443516 22214","category":"Other"}]}